ONEWEB-0555             
1 56057U 23043M   25239.09903369  .00000017  00000+0  11572-4 0  9992
2 56057  87.9007 287.3888 0002308 108.2208 251.9174 13.16594611120261
ONEWEB-0557             
1 56058U 23043N   25239.11327302  .00000072  00000+0  15392-3 0  9997
2 56058  87.9001 287.4054 0003264  98.3706 261.7795 13.16592386120261
ONEWEB-0558             
1 56059U 23043P   25239.13501231  .00000197  00000+0  44444-3 0  9993
2 56059  87.9238 302.6648 0001487  92.4486 267.6819 13.21827989119398
ONEWEB-0559             
1 56060U 23043Q   25239.12398651  .00000129  00000+0  28141-3 0  9995
2 56060  87.9240 302.6591 0001849  86.0796 274.0549 13.21825649119400
ONEWEB-0566             
1 56061U 23043R   25239.11767600  .00000142  00000+0  31206-3 0  9990
2 56061  87.9238 302.6582 0001690  90.2918 269.8410 13.21825408119384
ONEWEB-0568             
1 56062U 23043S   25239.13069712  .00000146  00000+0  34852-3 0  9996
2 56062  87.9013 287.3796 0002109 103.1503 256.9864 13.16593915120282
ONEWEB-0574             
1 56063U 23043T   25238.65719296  .00000028  00000+0  36018-4 0  9998
2 56063  87.9242 302.7384 0002172  95.4454 264.6927 13.21824660119363
ONEWEB-0575             
1 56064U 23043U   25239.12436111  .00000133  00000+0  31414-3 0  9995
2 56064  87.9008 287.3859 0002407  97.1569 262.9836 13.16594138120276
ONEWEB-0576             
1 56065U 23043V   25239.10535828  .00000072  00000+0  15424-3 0  9994
2 56065  87.9016 287.3828 0002096  99.8872 260.2496 13.16593193120264
ONEWEB-0577             
1 56066U 23043W   25239.11168758  .00000067  00000+0  14173-3 0  9994
2 56066  87.9017 287.3828 0002653  95.4894 264.6539 13.16592720120295
ONEWEB-0578             
1 56067U 23043X   25239.09874932  .00000055  00000+0  10227-3 0  9993
2 56067  87.9238 302.6604 0002062 103.2086 256.9279 13.21824765119385
ONEWEB-0579             
1 56068U 23043Y   25239.16498690  .00000052  00000+0  95156-4 0  9997
2 56068  87.9240 302.6336 0001896  89.0813 271.0538 13.21825388119405
ONEWEB-0581             
1 56069U 23043Z   25238.89003761  .00000125  00000+0  29304-3 0  9990
2 56069  87.9000 287.4493 0002347  89.7306 270.4094 13.16594045120230
ONEWEB-0609             
1 56070U 23043AA  25239.14612622  .00000156  00000+0  38064-3 0  9990
2 56070  87.9070 317.8782 0001839  99.2081 260.9258 13.15548501117775
ONEWEB-0613             
1 56071U 23043AB  25239.14137247  .00000190  00000+0  47174-3 0  9996
2 56071  87.9071 317.8928 0001847  91.1428 268.9914 13.15548433117775
ONEWEB-0630             
1 56072U 23043AC  25239.21267674  .00000248  00000+0  62369-3 0  9990
2 56072  87.9064 317.8530 0001700  91.2985 268.8341 13.15547571117779
ONEWEB-0632             
1 56073U 23043AD  25239.20792370  .00000201  00000+0  49974-3 0  9992
2 56073  87.9063 317.8742 0002058  93.9436 266.1929 13.15548563117776
ONEWEB-0633             
1 56074U 23043AE  25238.66919066  .00000089  00000+0  20224-3 0  9996
2 56074  87.9062 317.9454 0001499  92.4112 267.7190 13.15548088117689
ONEWEB-0634             
1 56075U 23043AF  25239.18732239 -.00000049  00000+0 -16532-3 0  9995
2 56075  87.9076 317.8836 0001728 106.7213 253.4107 13.15547677117744
ONEWEB-0635             
1 56076U 23043AG  25239.18256968  .00000015  00000+0  61783-5 0  9997
2 56076  87.9047 317.8510 0002194  94.7981 265.3399 13.15547738117774
ONEWEB-0636             
1 56077U 23043AH  25239.17465013 -.00000052  00000+0 -17330-3 0  9990
2 56077  87.9057 317.8677 0002133  95.7557 264.3816 13.15547564117751
ONEWEB-0637             
1 56078U 23043AJ  25239.16831660 -.00000010  00000+0 -60261-4 0  9991
2 56078  87.9058 317.8816 0002227 104.1453 255.9925 13.15547652117779
ONEWEB-0647             
1 56079U 23043AK  25239.16355189  .00000010  00000+0 -66436-5 0  9999
2 56079  87.9067 317.8946 0001955  92.8935 267.2419 13.15548229117763
ONEWEB-0651             
1 56080U 23043AL  25239.15880035  .00000007  00000+0 -16049-4 0  9993
2 56080  87.9074 317.8855 0002222  99.3701 260.7681 13.15548786118963
ONEWEB-0718             
1 56081U 23043AM  25239.15405734  .00000076  00000+0  16666-3 0  9992
2 56081  87.9068 317.8687 0001699 116.4287 243.7018 13.15548050117774
ONEWEB-0561             
1 56710U 23068A   25238.95839294  .00000022  00000+0  22908-4 0  9995
2 56710  87.9289 333.0993 0002274  89.5144 270.6250 13.20772742110661
ONEWEB-0668             
1 56711U 23068B   25239.12037335  .00000140  00000+0  33199-3 0  9996
2 56711  87.9018 287.3737 0001935 111.3513 248.7824 13.16591575113086
ONEWEB-0676             
1 56712U 23068C   25239.17660353 -.00000005  00000+0 -47760-4 0  9996
2 56712  87.9009 287.3832 0002244  89.1314 271.0074 13.16593542113013
ONEWEB-0677             
1 56713U 23068D   25239.25037153  .00000069  00000+0  13749-3 0  9999
2 56713  87.9288 333.0178 0002208 100.1852 259.9531 13.20773726111005
ONEWEB-0678             
1 56714U 23068E   25239.19841674  .00000177  00000+0  43701-3 0  9995
2 56714  87.9073 317.8323 0001807  88.5206 271.6132 13.15548088110637
ONEWEB-0679             
1 56715U 23068F   25239.06974322  .00000089  00000+0  19963-3 0  9994
2 56715  87.9010 287.3970 0002416 102.9979 257.1421 13.16594040113029
ONEWEB-0680             
1 56716U 23068G   25238.94103076 -.00000205  00000+0 -52690-3 0  9997
2 56716  87.9230 302.6784 0002150 114.6757 245.4601 13.21826050112223
ONEWEB-0681             
1 56717U 23068H   25239.14607323  .00000100  00000+0  20952-3 0  9993
2 56717  87.9239 302.6539 0003016  88.8690 271.2790 13.21825649112242
ONEWEB-0682             
1 56718U 23068J   25239.14849383  .00000138  00000+0  33168-3 0  9992
2 56718  87.9055 317.8645 0002147 112.3014 247.8344 13.15547470110790
ONEWEB-0683             
1 56719U 23068K   25239.16989691 -.00000052  00000+0 -17237-3 0  9998
2 56719  87.9069 317.8370 0002001 107.0739 253.0610 13.15548641110768
ONEWEB-0684             
1 56720U 23068L   25239.17781597 -.00000021  00000+0 -90891-4 0  9990
2 56720  87.9049 317.8370 0000968  53.0319 307.0900 13.15548798110598
ONEWEB-0686             
1 56721U 23068M   25239.05942804 -.00002249  00000+0 -59188-2 0  9994
2 56721  87.9001 287.4303 0001741  99.5633 260.5695 13.16585019113011
ONEWEB-0694             
1 56722U 23068N   25239.10220934 -.00000013  00000+0 -68661-4 0  9999
2 56722  87.9016 287.3485 0002090 107.7908 252.3451 13.16594191113079
ONEWEB-0696             
1 56723U 23068P   25239.21109171  .00000242  00000+0  60754-3 0  9997
2 56723  87.9069 317.8819 0001792  90.2130 269.9206 13.15548564110711
ONEWEB-0703             
1 56724U 23068Q   25238.68819815  .00000088  00000+0  19918-3 0  9995
2 56724  87.9056 317.9714 0002329  69.5916 290.5464 13.15548417110534
ONEWEB-0721             
1 56725U 23068R   25239.20131764 -.00000042  00000+0 -13521-3 0  9991
2 56725  86.6866 179.2228 0001963  77.2603 282.8749 13.22442818119086
ONEWEB-0015             
1 61594U 24188A   25239.03281613 -.00000111  00000+0 -35013-3 0  9992
2 61594  87.8781  79.7167 0002318  92.5289 267.6104 13.11414283 45904
ONEWEB-0687             
1 61595U 24188B   25238.90218783  .00000007  00000+0 -16395-4 0  9992
2 61595  87.9024  64.4634 0002020 106.9030 253.2323 13.17649604 47145
ONEWEB-0688             
1 61596U 24188C   25238.93087473 -.00000023  00000+0 -93266-4 0  9997
2 61596  87.9021  64.4577 0003050  98.2086 261.9392 13.17649007 47146
ONEWEB-0689             
1 61597U 24188D   25238.99042652 -.00000030  00000+0 -12164-3 0  9999
2 61597  87.8750  79.6854 0001658  97.5555 262.5761 13.11418220 45898
ONEWEB-0690             
1 61598U 24188E   25239.00060422  .00000430  00000+0  11774-2 0  9995
2 61598  87.8792  79.6568 0001888  63.4111 296.7210 13.11417295 46072
ONEWEB-0691             
1 61599U 24188F   25238.99552383  .00000195  00000+0  51466-3 0  9996
2 61599  87.8708  79.6277 0002131  87.7362 272.4010 13.11418088 45929
ONEWEB-0692             
1 61600U 24188G   25238.93953014  .00000466  00000+0  12787-2 0  9992
2 61600  87.8773  79.7368 0000805  98.9140 261.2079 13.11418437 45907
ONEWEB-0693             
1 61601U 24188H   25238.94267801  .00000010  00000+0 -82197-5 0  9997
2 61601  87.9025  64.4733 0002240  68.7526 291.3845 13.17650590 47130
ONEWEB-0695             
1 61602U 24188J   25238.83950534  .00000131  00000+0  33424-3 0  9998
2 61602  87.8778  79.7435 0001358 103.0230 257.1050 13.11416298 45884
ONEWEB-0697             
1 61603U 24188K   25238.94804018  .00000199  00000+0  52522-3 0  9990
2 61603  87.8767  79.7133 0000846  87.9656 272.1569 13.11413893 45881
ONEWEB-0698             
1 61604U 24188L   25239.00230260  .00000475  00000+0  13047-2 0  9996
2 61604  87.8773  79.7164 0001161  46.6491 313.4733 13.11417007 45910
ONEWEB-0699             
1 61605U 24188M   25238.85733782 -.00000849  00000+0 -24700-2 0  9991
2 61605  87.8764  94.9563 0001113  75.5476 284.5775 13.10371919 44760
ONEWEB-0700             
1 61606U 24188N   25238.85899593 -.00000827  00000+0 -24047-2 0  9995
2 61606  87.8736  94.8447 0001270 103.6200 256.5069 13.10372670 44751
ONEWEB-0701             
1 61607U 24188P   25239.02830606 -.00000411  00000+0 -12130-2 0  9995
2 61607  87.8760  94.9285 0000832  77.9625 282.1596 13.10375519 44785
ONEWEB-0702             
1 61608U 24188Q   25238.97177676 -.00001143  00000+0 -32618-2 0  9996
2 61608  87.8710  79.6608 0000838 110.1658 249.9560 13.11411605 45929
ONEWEB-0704             
1 61609U 24188R   25238.86397578 -.00000839  00000+0 -24403-2 0  9994
2 61609  87.8784  94.9078 0000860 109.6929 250.4292 13.10373062 44742
ONEWEB-0705             
1 61610U 24188S   25239.02167221 -.00000569  00000+0 -16654-2 0  9994
2 61610  87.8761  94.9130 0001877 121.4908 238.6403 13.10375376 36930
ONEWEB-0706             
1 61611U 24188T   25238.85403050 -.00000596  00000+0 -17439-2 0  9990
2 61611  87.8758  94.9741 0001246 103.9794 256.1472 13.10367244 44837
